IRIDIUM 36 [-]          
1 24967U 97056C   23292.92280717  .00001146  00000+0  38434-3 0  9995
2 24967  86.3952  67.5233 0002110  96.5600 263.5837 14.36461180365157
IRIDIUM 39 [-]          
1 25042U 97069D   23292.92198706  .00001507  00000+0  40472-3 0  9996
2 25042  86.3871 110.7934 0018885 162.8574 197.3272 14.47426351361217
IRIDIUM 38 [-]          
1 25043U 97069E   23292.93714726  .00000802  00000+0  26461-3 0  9993
2 25043  86.3935 128.0347 0001359  12.9419 347.1812 14.36922158358866
IRIDIUM 42 [-]          
1 25077U 97077A   23292.84436987  .00000731  00000+0  24867-3 0  9998
2 25077  86.3948 133.5039 0001562  73.5316 286.6052 14.35235169354194
IRIDIUM 44 [-]          
1 25078U 97077B   23292.74929929  .00000898  00000+0  28470-3 0  9999
2 25078  86.3914 117.0975 0001591 147.8521 212.2775 14.39025463356455
IRIDIUM 45 [-]          
1 25104U 97082A   23292.83115161  .00015343  00000+0  98141-3 0  9993
2 25104  86.3770 334.9170 0179973  33.5700 327.6779 14.95986556360699
IRIDIUM 24 [-]          
1 25105U 97082B   23292.85604970  .00000913  00000+0  27933-3 0  9995
2 25105  86.3927 337.0637 0009333 281.2254  78.7896 14.40785358355879
IRIDIUM 51 [-]          
1 25262U 98018A   23292.17967282  .00015415  00000+0  85410-3 0  9999
2 25262  86.3963 345.7357 0163904 350.3509   9.4584 15.02840500355194
